[{"OBJECT_NAME":"STARLINK-35268","OBJECT_ID":"2025-218V","EPOCH":"2026-03-09T15:08:31.186464","MEAN_MOTION":15.05655017,"ECCENTRICITY":0.0002163,"INCLINATION":97.6029,"RA_OF_ASC_NODE":292.9394,"ARG_OF_PERICENTER":74.6897,"MEAN_ANOMALY":285.4569,"EPHEMERIS_TYPE":0,"CLASSIFICATION_TYPE":"U","NORAD_CAT_ID":65810,"ELEMENT_SET_NO":999,"REV_AT_EPOCH":2496,"BSTAR":0.00029931,"MEAN_MOTION_DOT":4.261e-5,"MEAN_MOTION_DDOT":0},{"OBJECT_NAME":"FENGYUN 1C DEB","OBJECT_ID":"1999-025AXU","EPOCH":"2026-03-09T22:45:17.410752","MEAN_MOTION":14.89016033,"ECCENTRICITY":0.0148202,"INCLINATION":97.9241,"RA_OF_ASC_NODE":129.3565,"ARG_OF_PERICENTER":114.5021,"MEAN_ANOMALY":247.1731,"EPHEMERIS_TYPE":0,"CLASSIFICATION_TYPE":"U","NORAD_CAT_ID":30882,"ELEMENT_SET_NO":999,"REV_AT_EPOCH":946,"BSTAR":0.0012177352,"MEAN_MOTION_DOT":0.00014041,"MEAN_MOTION_DDOT":0}]
